{
    "type": "FeatureCollection",
    "features": [
        {
            "type": "Feature",
            "geometry": {
                "type": "Polygon",
                "coordinates": [
                    [
                        [
                            -48.44428583,
                            -12.86503944
                        ],
                        [
                            -48.46336028,
                            -12.86560667
                        ],
                        [
                            -48.46015083,
                            -12.87051389
                        ],
                        [
                            -48.46008417,
                            -12.87062139
                        ],
                        [
                            -48.45714139,
                            -12.87606444
                        ],
                        [
                            -48.44547222,
                            -12.87903361
                        ],
                        [
                            -48.44551806,
                            -12.87876694
                        ],
                        [
                            -48.44588167,
                            -12.87827639
                        ],
                        [
                            -48.44594722,
                            -12.87781639
                        ],
                        [
                            -48.44599139,
                            -12.8772775
                        ],
                        [
                            -48.44579444,
                            -12.8767725
                        ],
                        [
                            -48.44564583,
                            -12.87645722
                        ],
                        [
                            -48.44542028,
                            -12.87607139
                        ],
                        [
                            -48.44524083,
                            -12.87574056
                        ],
                        [
                            -48.44519639,
                            -12.87553556
                        ],
                        [
                            -48.44496194,
                            -12.87530139
                        ],
                        [
                            -48.44486528,
                            -12.875035
                        ],
                        [
                            -48.44496444,
                            -12.87451417
                        ],
                        [
                            -48.44489639,
                            -12.87410917
                        ],
                        [
                            -48.44480667,
                            -12.87351833
                        ],
                        [
                            -48.44486167,
                            -12.87311861
                        ],
                        [
                            -48.44486694,
                            -12.87263139
                        ],
                        [
                            -48.44471333,
                            -12.872285
                        ],
                        [
                            -48.44459806,
                            -12.87201889
                        ],
                        [
                            -48.44448167,
                            -12.87185444
                        ],
                        [
                            -48.44459389,
                            -12.87136861
                        ],
                        [
                            -48.44433417,
                            -12.87115528
                        ],
                        [
                            -48.44408694,
                            -12.8709475
                        ],
                        [
                            -48.44381528,
                            -12.87075194
                        ],
                        [
                            -48.44353444,
                            -12.87051889
                        ],
                        [
                            -48.44328083,
                            -12.87013611
                        ],
                        [
                            -48.44295417,
                            -12.86957806
                        ],
                        [
                            -48.44276167,
                            -12.86928306
                        ],
                        [
                            -48.44247722,
                            -12.86906528
                        ],
                        [
                            -48.44195472,
                            -12.868795
                        ],
                        [
                            -48.44159417,
                            -12.86856194
                        ],
                        [
                            -48.44167806,
                            -12.86841778
                        ],
                        [
                            -48.44428583,
                            -12.86503944
                        ]
                    ]
                ]
            },
            "properties": {
                "nome": "Fazenda Jacupiranga"
            }
        }
    ]
}